[{"OBJECT_NAME":"UM5-EOSAT","OBJECT_ID":"2024-149CR","EPOCH":"2026-03-09T17:21:09.122400","MEAN_MOTION":15.00894746,"ECCENTRICITY":0.00087192,"INCLINATION":97.6855,"RA_OF_ASC_NODE":148.6787,"ARG_OF_PERICENTER":107.8964,"MEAN_ANOMALY":252.3212,"EPHEMERIS_TYPE":0,"CLASSIFICATION_TYPE":"U","NORAD_CAT_ID":60555,"ELEMENT_SET_NO":999,"REV_AT_EPOCH":8529,"BSTAR":0.00036077282,"MEAN_MOTION_DOT":4.537e-5,"MEAN_MOTION_DDOT":0},{"OBJECT_NAME":"STARLINK-33590","OBJECT_ID":"2025-123AB","EPOCH":"2026-03-09T17:12:40.552992","MEAN_MOTION":14.9832798,"ECCENTRICITY":0.00034921,"INCLINATION":70.0034,"RA_OF_ASC_NODE":194.3359,"ARG_OF_PERICENTER":277.6147,"MEAN_ANOMALY":82.4615,"EPHEMERIS_TYPE":0,"CLASSIFICATION_TYPE":"U","NORAD_CAT_ID":64316,"ELEMENT_SET_NO":999,"REV_AT_EPOCH":4162,"BSTAR":0.0003774133,"MEAN_MOTION_DOT":4.413e-5,"MEAN_MOTION_DDOT":0}]
